UBAKUSAT                
1 43467U 98067NQ  19102.81499585  .00016205  00000-0  19294-3 0  9998
2 43467  51.6380 315.6795 0003016 169.2955 190.8104 15.61264901 52423
BATSU-CS1 (IRAZU)       
1 43468U 98067NR  19102.44781561  .00033196  00000-0  32669-3 0  9995
2 43468  51.6375 313.2219 0001375 190.1728 169.9240 15.65669006152406
CUBERRT                 
1 43546U 98067NU  19102.45552025  .00013199  00000-0  15368-3 0  9992
2 43546  51.6387 319.2717 0005340 229.7036 130.3492 15.62038334 42479
TEMPEST-D               
1 43547U 98067NV  19102.03769782  .00006486  00000-0  94281-4 0  9990
2 43547  51.6386 325.4784 0005367 224.5574 135.4987 15.57148152 42032
RAINCUBE                
1 43548U 98067NW  19102.87702408  .00016887  00000-0  21190-3 0  9999
2 43548  51.6380 319.0798 0005365 236.4449 123.6032 15.59838400 42643
HALOSAT                 
1 43549U 98067NX  19101.98154796  .00016813  00000-0  21151-3 0  9998
2 43549  51.6383 323.6044 0005154 237.0557 122.9941 15.59775852 42063
ENDUROSAT ONE           
1 43551U 98067NZ  19102.82992694  .00019932  00000-0  23840-3 0  9994
2 43551  51.6387 318.0254 0005610 246.7733 113.2670 15.60968526 42629
EQUISAT                 
1 43552U 98067PA  19102.89325432  .00015886  00000-0  19777-3 0  9990
2 43552  51.6396 318.4577 0005922 246.8001 113.2369 15.60098101 42580
AEROCUBE 12A            
1 43556U 18046C   19102.83711307  .00003254  00000-0  12821-3 0  9996
2 43556  51.6424  17.2969 0008360 187.3178 172.7681 15.28498388 41332
AEROCUBE 12B            
1 43557U 18046D   19102.84551416  .00002365  00000-0  96961-4 0  9991
2 43557  51.6420  17.3505 0008450 186.8561 173.2304 15.28392335 41283
UITMSAT-1               
1 43589U 98067PD  19102.44869517  .00016902  00000-0  21076-3 0  9993
2 43589  51.6370 321.4587 0005075 252.9285 107.1152 15.60006565 38241
MAYA-1                  
1 43590U 98067PE  19102.89308412  .00017657  00000-0  21955-3 0  9990
2 43590  51.6373 319.1792 0005202 256.5519 103.4895 15.60044664 38245
BHUTAN-1                
1 43591U 98067PF  19102.82202872  .00017807  00000-0  22092-3 0  9997
2 43591  51.6388 319.4655 0005329 256.3511 103.6889 15.60095989 38233
SIRIUSSAT-1             
1 43595U 98067PG  19102.52033673  .00016317  00000-0  20842-3 0  9995
2 43595  51.6373 321.9377 0003703 204.4495 155.6323 15.59403108 37355
SIRIUSSAT-2             
1 43596U 98067PH  19102.86418221  .00017009  00000-0  21819-3 0  9993
2 43596  51.6385 320.5096 0004235 208.7212 151.3548 15.59252740 37409
TANUSHA-3               
1 43597U 98067PJ  19102.21350640  .00020923  00000-0  25630-3 0  9997
2 43597  51.6369 322.8687 0003611 218.5399 141.5336 15.60315849 37313
SURFSAT                 
1 43614U 18070B   19102.55359404  .00003468  00000-0  95137-4 0  9992
2 43614  93.0305 335.9714 0015213 195.3801 164.6992 15.37218667 32098
CP7 (DAVE)              
1 43615U 18070C   19102.81672761  .00003234  00000-0  88882-4 0  9996
2 43615  93.0311 336.0820 0015381 194.0339 166.0489 15.37163708 32131
ELFIN-B                 
1 43616U 18070D   19102.84838405  .00004931  00000-0  13327-3 0  9995
2 43616  93.0271 336.0192 0016021 198.1364 161.9320 15.37639913 32149
ELFIN-A                 
1 43617U 18070E   19102.84377966  .00004863  00000-0  13137-3 0  9999
2 43617  93.0328 336.1804 0015263 194.3732 165.7089 15.37672030 32149
CUBEBEL-1 (BSUSAT-1)    
1 43666U 18083E   19102.82768259  .00001483  00000-0  77311-4 0  9994
2 43666  97.5261 127.7467 0016881  63.7198  47.6423 15.17428338 25149
DEBRISSAT-2             
1 43680U 98067PR  19102.85730542  .00028571  00000-0  34405-3 0  9990
2 43680  51.6361 319.6821 0003176 233.5820 126.4876 15.60569833 46151
CICERO 10               
1 43690U 18088A   19102.78805131  .00001562  00000-0  71398-4 0  9999
2 43690  85.0412   2.5534 0017611  92.3084 268.0174 15.19527138 23178
IRVINE01                
1 43693U 18088D   19102.51935055  .00003904  00000-0  17294-3 0  9998
2 43693  85.0386   2.4708 0021097  80.7701 279.5925 15.21087972 23152
PROXIMA I               
1 43694U 18088E   19102.15246377  .00001479  00000-0  63990-4 0  9991
2 43694  85.0358   2.5834 0021883  74.2562 286.1091 15.21261444 23100
PROXIMA II              
1 43696U 18088G   19102.15185705  .00001465  00000-0  63355-4 0  9990
2 43696  85.0358   2.5844 0021909  74.2374 286.1281 15.21266904 23100
FACSAT-1                
1 43721U 18096C   19102.85919755  .00002507  00000-0  99802-4 0  9999
2 43721  97.4646 172.8235 0017649 200.5075 159.5456 15.26071859 20549
CENTAURI-2              
1 43722U 18096D   19102.84843357  .00003061  00000-0  12057-3 0  9995
2 43722  97.4644 172.8368 0017805 201.3616 158.6881 15.26250920 20538
INNOSAT-2               
1 43738U 18096V   19102.87127210  .00003814  00000-0  14004-3 0  9998
2 43738  97.4645 173.2644 0023947 214.9582 145.0086 15.28303281 20576
SIRION PATHFINDER-2     
1 43759U 18099B   19102.85974080  .00000141  00000-0  18117-4 0  9997
2 43759  97.7494 175.6480 0014439 177.9561 182.1721 14.95094206 19437
CORVUS-BC 4             
1 43767U 18099K   19102.17145056 -.00000005  00000-0  47998-5 0  9994
2 43767  97.7484 174.8324 0011731 181.6287 178.4897 14.94540748 19339
SHIELDS 1               
1 43850U 18104B   19102.27956879  .00000041  00000-0  00000+0 0  9994
2 43850  85.0253 101.0045 0013359 210.9244 149.1223 15.21013534 17778
STF-1                   
1 43852U 18104D   19102.45954933  .00000041  00000-0  00000+0 0  9995
2 43852  85.0317 101.0334 0013006 224.8981 135.1307 15.20450065 17796
LUME 1                  
1 43908U 18111AJ  19102.83938947  .00001496  00000-0  64019-4 0  9994
2 43908  97.2945   9.9005 0020418 224.3559 135.6044 15.24185842 16268
AOBA VELOX-IV           
1 43940U 19003J   19102.70063123  .00002590  00000-0  11061-3 0  9996
2 43940  97.2838 162.5790 0022652 310.8094 167.6677 15.23546666 12884
CATSAT-2                
1 44029U 98067PV  19102.87409442  .00014109  00000-0  21182-3 0  9992
2 44029  51.6402 325.0666 0004452 253.0966 106.9537 15.55166294 11178
DELPHINI                
1 44030U 98067PW  19102.87266967  .00013710  00000-0  20563-3 0  9996
2 44030  51.6397 325.0537 0004217 248.7890 111.2651 15.55222432 11146
UNITE                   
1 44031U 98067PX  19102.62318059  .00009250  00000-0  14333-3 0  9992
2 44031  51.6397 326.3882 0002913 241.5079 118.5619 15.54792836 11104
TECHEDSAT 8             
1 44032U 98067PY  19102.83965810  .00028687  00000-0  39914-3 0  9996
2 44032  51.6391 324.8343 0003363 235.7379 124.3295 15.56723440 11126
CATSAT-1                
1 44033U 98067PZ  19102.03861812  .00014696  00000-0  22046-3 0  9999
2 44033  51.6399 329.2377 0004236 249.6663 110.3873 15.55150972 10951
